[{"OBJECT_NAME":"STARLINK-1506","OBJECT_ID":"2020-038T","EPOCH":"2026-03-09T15:50:48.887520","MEAN_MOTION":15.26134655,"ECCENTRICITY":0.00025141,"INCLINATION":53.0733,"RA_OF_ASC_NODE":202.5028,"ARG_OF_PERICENTER":227.7836,"MEAN_ANOMALY":132.2949,"EPHEMERIS_TYPE":0,"CLASSIFICATION_TYPE":"U","NORAD_CAT_ID":45747,"ELEMENT_SET_NO":999,"REV_AT_EPOCH":31668,"BSTAR":0.0009799682,"MEAN_MOTION_DOT":0.0002538,"MEAN_MOTION_DDOT":0},{"OBJECT_NAME":"OBJECT B","OBJECT_ID":"2026-023B","EPOCH":"2026-03-09T17:17:10.012128","MEAN_MOTION":15.23001134,"ECCENTRICITY":0.00195537,"INCLINATION":96.6353,"RA_OF_ASC_NODE":141.6642,"ARG_OF_PERICENTER":132.0881,"MEAN_ANOMALY":228.2024,"EPHEMERIS_TYPE":0,"CLASSIFICATION_TYPE":"U","NORAD_CAT_ID":67675,"ELEMENT_SET_NO":999,"REV_AT_EPOCH":486,"BSTAR":0.00052794729,"MEAN_MOTION_DOT":0.0001243,"MEAN_MOTION_DDOT":0}]
